[{"type": "node", "id": 34039212, "lat": 47.4955184, "lon": 8.7415564, "tags": {"amenity": "restaurant", "level": "1", "name": "Hallenbadrestaurant Geiselweid", "opening_hours": "Tu-Fr 09:00-21:00; Mo 11:30-21:00; Sa,Su 09:00-18:30"}}, {"type": "node", "id": 34040796, "lat": 47.4830648, "lon": 8.705704, "tags": {"amenity": "restaurant", "indoor_seating": "no", "name": "Schwimmbadrestaurant T\u00f6ss", "outdoor_seating": "yes"}}, {"type": "node", "id": 246249861, "lat": 47.5000502, "lon": 8.7312632, "tags": {"addr:city": "Winterthur", "addr:country": "CH", "addr:housenumber": "48", "addr:postcode": "8400", "addr:street": "Oberer Graben", "alt_name": "Tibits Winterthur", "amenity": "restaurant", "branch": "Winterthur", "brand": "tibits", "diet:vegan": "yes", "diet:vegetarian": "only", "name": "Tibits", "opening_hours": "Mo 07:00-22:00; Tu-Fr 07:00-22:30; Sa 08:00-22:30; Su 09:00-22:00", "operator": "Tibits", "phone": "+41 52 202 73 33", "website": "https://www.tibits.ch/de/restaurants#tibits-winterthur", "wheelchair": "yes"}}, {"type": "node", "id": 246253651, "lat": 47.499747, "lon": 8.7264919, "tags": {"amenity": "restaurant", "cuisine": "regional", "name": "Casinotheater Restaurant Fredi", "opening_hours": "Mo 11:00-22:30; Tu,We 09:00-22:30; Th,Fr 09:00-24:00; Sa 11:00-24:00", "wheelchair": "limited"}}, {"type": "node", "id": 247766478, "lat": 47.4979565, "lon": 8.727372, "tags": {"addr:city": "Winterthur", "addr:country": "CH", "addr:housenumber": "59", "addr:postcode": "8400", "addr:street": "Steinberggasse", "amenity": "restaurant", "check_date": "2023-02-19", "email": "winterthur@grepery.ch", "internet_access": "wlan", "internet_access:fee": "customers", "name": "grepery", "opening_hours": "Mo-Th 09:00-24:00; Fr-Sa 09:00-01:00; Su 09:00-23:00", "payment:credit_cards": "yes", "payment:mastercard": "yes", "payment:visa": "yes", "phone": "+41 52 202 45 45", "website": "https://www.grepery.ch/winterthur/"}}, {"type": "node", "id": 256866280, "lat": 47.4996979, "lon": 8.7241129, "tags": {"addr:city": "Winterthur", "addr:housenumber": "24", "addr:postcode": "8400", "addr:street": "Stadthausstrasse", "amenity": "restaurant", "check_date": "2023-12-13", "level": "0;1", "name": "National", "opening_hours": "Mo-We 09:00-22:30; Th-Fr 09:00-23:30; Sa 09:00-23:30; Su 10:00-21:30", "operator": "Bindella", "reservation": "yes", "toilets:wheelchair": "yes", "website": "https://www.bindella.ch/de/national.html", "wheelchair": "limited"}}, {"type": "node", "id": 270908998, "lat": 47.4989606, "lon": 8.7313826, "tags": {"amenity": "restaurant", "cuisine": "regional", "name": "zum Sch\u00e4fli", "opening_hours": "Mo-Fr 08:30-00:00; Sa 10:30-00:00", "website": "https://www.restaurant-schaefli-winterthur.ch/", "wheelchair": "no"}}, {"type": "node", "id": 277746978, "lat": 47.4924964, "lon": 8.761252, "tags": {"amenity": "restaurant", "name": "Kafi Ass", "wheelchair": "limited"}}, {"type": "node", "id": 282655581, "lat": 47.498689, "lon": 8.727701, "tags": {"addr:city": "Winterthur", "addr:country": "CH", "addr:housenumber": "11", "addr:postcode": "8400", "addr:street": "Metzggasse", "amenity": "restaurant", "capacity": "45", "cuisine": "italian", "delivery": "no", "level": "0", "name": "Pulcinella", "opening_hours": "Mo-Su 17:30-23:30", "outdoor_seating": "yes", "phone": "+41 52 212 98 62", "smoking": "outside", "takeaway": "yes", "website": "https://pulcinella-winterthur.ch/", "wheelchair": "limited"}}, {"type": "node", "id": 300428220, "lat": 47.5109256, "lon": 8.6944084, "tags": {"amenity": "restaurant", "name": "Hirschen"}}, {"type": "node", "id": 307364223, "lat": 47.507203, "lon": 8.7112534, "tags": {"addr:city": "Winterthur", "addr:housenumber": "77", "addr:postcode": "8400", "addr:street": "W\u00fclflingerstrasse", "amenity": "restaurant", "name": "Caf\u00e9 Auszeit", "opening_hours": "Tu-Su 08:00-18:00", "phone": "+41 52 222 43 43", "website": "https://www.cafe-auszeit.ch"}}, {"type": "node", "id": 307364547, "lat": 47.5116598, "lon": 8.7216514, "tags": {"addr:city": "Winterthur", "addr:housenumber": "56", "addr:postcode": "8400", "addr:street": "Schaffhauserstrasse", "amenity": "restaurant", "capacity": "50", "check_date": "2023-10-07", "cuisine": "pizza;italian", "level": "0", "name": "Pizzeria Rosenberg", "opening_hours": "Tu-Su 9:00-22:00", "outdoor_seating": "yes", "payment:cash": "yes", "payment:maestro": "yes", "phone": "+41 52 212 25 00", "smoking": "outside", "start_date": "2.3.2020", "takeaway": "yes", "website": "https://pizzeria-rosenberg.ch", "wheelchair": "no"}}, {"type": "node", "id": 359683408, "lat": 47.4963918, "lon": 8.7402957, "tags": {"amenity": "restaurant", "check_date:opening_hours": "2023-04-06", "cuisine": "pizza;italian", "diet:vegan": "no", "diet:vegetarian": "yes", "email": "info@al-agi-m.ch", "level": "0", "name": "Ristorante Pizzeria al Agi-M", "opening_hours": "Mo-Sa 11:00-14:00,17:00-22:30; PH closed", "outdoor_seating": "terrace", "phone": "+41 52 238 04 32", "reservation": "yes", "website": "https://al-agi-m.ch/", "wheelchair": "no"}}, {"type": "node", "id": 359683523, "lat": 47.4958068, "lon": 8.7380951, "tags": {"addr:city": "Winterthur", "addr:housenumber": "45", "addr:postcode": "8400", "addr:street": "Gr\u00fczenstrasse", "alt_name": "Restaurant George Museumbistro", "amenity": "restaurant", "diet:vegan": "yes", "diet:vegetarian": "yes", "email": "info@bistro-george.ch", "name": "Bistrot George", "opening_hours": "Tu,Th-Su 10:00-18:00; We 10:00-20:00", "phone": "+41 52 238 10 90", "website": "https://bistro-george.ch/", "wheelchair": "limited"}}, {"type": "node", "id": 359683717, "lat": 47.4943149, "lon": 8.7407208, "tags": {"amenity": "restaurant", "cuisine": "italian;indian", "name": "Cucina", "wheelchair": "yes"}}, {"type": "node", "id": 359685942, "lat": 47.5003358, "lon": 8.727246, "tags": {"addr:city": "Winterthur", "addr:country": "CH", "addr:housenumber": "8", "addr:street": "Stadthausstrasse", "amenity": "restaurant", "check_date": "2023-06-29", "cuisine": "regional", "name": "Strauss", "opening_hours": "Mo-Sa 10:00-24:00", "phone": "+41 52 212 29 70", "website": "https://www.strauss-winterthur.ch/", "wheelchair": "limited"}}, {"type": "node", "id": 359686638, "lat": 47.5004628, "lon": 8.7268709, "tags": {"addr:city": "Winterthur", "addr:country": "CH", "addr:housenumber": "10", "addr:postcode": "8400", "addr:street": "Stadthausstrasse", "amenity": "restaurant", "check_date": "2023-06-29", "cuisine": "regional", "name": "Rosa Pulver", "opening_hours": "Tu-Fr 11:30-13:30, 18:00+; Sa 18:00+", "website": "https://rosapulver.ch/"}}, {"type": "node", "id": 359686907, "lat": 47.5008859, "lon": 8.7260018, "tags": {"amenity": "restaurant", "branch": "Winterthur Stadtgarten", "level": "2", "name": "Coop Restaurant", "opening_hours": "Mo-Sa 08:00-20:00", "operator": "Coop Genossenschaft", "wheelchair": "yes"}}, {"type": "node", "id": 359687037, "lat": 47.5009387, "lon": 8.7252033, "tags": {"addr:city": "Winterthur", "addr:housenumber": "12", "addr:postcode": "8400", "addr:street": "Bahnhofplatz", "alt_name": "Santa Lucia Winterthur", "amenity": "restaurant", "branch": "Winterthur", "brand": "Santa Lucia", "check_date:opening_hours": "2023-08-10", "cuisine": "pizza", "diet:vegetarian": "yes", "name": "Santa Lucia", "opening_hours": "Mo-Fr 11:30-14:00,17:30-22:30; Sa,Su 11:30-22:30", "operator": "Bindella", "website": "https://www.bindella.ch/de/santa-lucia-winterthur.html", "wheelchair": "limited"}}, {"type": "node", "id": 359687975, "lat": 47.4989829, "lon": 8.7262079, "tags": {"addr:city": "Winterthur", "addr:country": "CH", "addr:housenumber": "2", "addr:postcode": "8400", "addr:street": "Bosshardeng\u00e4sschen", "amenity": "restaurant", "check_date": "2023-07-07", "contact:email": "info@restaurant-truebli.ch", "indoor_seating": "yes", "name": "Restaurant Tr\u00fcbli", "opening_hours": "Tu-Sa 16:00-23:30", "outdoor_seating": "no", "phone": "+41 52 212 55 36", "website": "https://restaurant-truebli.ch"}}, {"type": "node", "id": 359688178, "lat": 47.4984254, "lon": 8.7261656, "tags": {"addr:city": "Winterthur", "addr:country": "CH", "addr:housenumber": "3", "addr:postcode": "8400", "addr:street": "Neumarkt", "amenity": "restaurant", "cuisine": "thai", "name": "Typisch Thai", "opening_hours": "Mo-Fr 10:00-14:00; Mo-Th, Su 17:00-22:00; Fr, Sa 17:00-23:00", "phone": "+41 52 213 28 41", "website": "https://www.typischthai.ch"}}, {"type": "node", "id": 359690395, "lat": 47.4977995, "lon": 8.7278351, "tags": {"addr:city": "Winterthur", "addr:housenumber": "56", "addr:postcode": "8400", "addr:street": "Technikumstrasse", "air_conditioning": "no", "amenity": "restaurant", "bar": "no", "capacity": "40", "check_date": "2023-07-01", "cuisine": "mediterranean", "delivery": "no", "internet_access": "no", "level": "0", "name": "Brasserie R\u00f6ssli", "opening_hours": "Tu-Fr 11:45-14:00,18:00-22:30; Sa 18:00-22:30", "outdoor_seating": "yes", "phone": "+41 52 212 35 08", "reservation": "yes", "smoking": "outside", "takeaway": "no", "website": "https://www.brasserie-roessli.ch/", "wheelchair": "no"}}, {"type": "node", "id": 359690720, "lat": 47.498871, "lon": 8.7301867, "tags": {"amenity": "restaurant", "level": "0;1", "name": "Obergass", "opening_hours": "Mo 17:00-24:00; Tu-Fr 08:00-24:00; Sa 09:30-24:00", "outdoor_seating": "yes", "website": "http://www.restaurant-obergass.ch/", "wheelchair": "no"}}, {"type": "node", "id": 359690786, "lat": 47.4979333, "lon": 8.729406, "tags": {"addr:city": "Winterthur", "addr:housenumber": "28", "addr:postcode": "8400", "addr:street": "Technikumstrasse", "amenity": "restaurant", "cuisine": "italian", "name": "DA M\u00c8", "wheelchair": "no"}}, {"type": "node", "id": 359690871, "lat": 47.4996801, "lon": 8.7298391, "tags": {"addr:city": "Winterthur", "addr:country": "CH", "addr:housenumber": "15", "addr:postcode": "8400", "addr:street": "Marktgasse", "amenity": "restaurant", "cuisine": "regional", "level": "1", "name": "Sonne", "opening_hours": "We-Su 11:00-14:30,17:00-22:00+", "website": "https://www.zur-sonne.ch/", "wikidata": "Q24206971"}}, {"type": "node", "id": 359691092, "lat": 47.500123, "lon": 8.7291699, "tags": {"addr:city": "Winterthur", "addr:country": "CH", "addr:housenumber": "71", "addr:postcode": "8400", "addr:street": "Stadthausstrasse", "amenity": "restaurant", "check_date:opening_hours": "2023-12-25", "cuisine": "italian", "diet:vegetarian": "yes", "name": "La Pergola", "opening_hours": "Mo-Sa 09:00-14:00,17:00-23:00; Su off", "phone": "+41 52 202 02 02", "toilets:wheelchair": "no", "website": "https://www.la-pergola.ch/", "wheelchair": "limited"}}, {"type": "node", "id": 359691412, "lat": 47.4997238, "lon": 8.7287787, "tags": {"addr:city": "Winterthur", "addr:country": "CH", "addr:housenumber": "44", "addr:postcode": "8400", "addr:street": "Marktgasse", "alt_name": "Cantinetta Bindella Winterthur", "amenity": "restaurant", "cuisine": "italian", "level": "0", "name": "Cantinetta Bindella", "opening_hours": "Mo-Th 11:30-23:00; Fr-Sa 11:30-24:00; Su 12:00-22:00", "operator": "Bindella", "outdoor_seating": "yes", "phone": "+41 52 212 13 49", "reservation": "yes", "smoking": "outside", "website": "https://www.bindella.ch/de/cantinetta-bindella-winterthur.html", "wheelchair": "yes"}}, {"type": "node", "id": 359692073, "lat": 47.4987259, "lon": 8.7247369, "tags": {"addr:city": "Winterthur", "addr:country": "CH", "addr:housenumber": "96", "addr:postcode": "8400", "addr:street": "Technikumstrasse", "amenity": "restaurant", "level": "0", "name": "Orsini", "opening_hours": "Mo,Tu 10:00-22:00; We-Fr 10:00-23:00; Sa 15:00-23:00", "outdoor_seating": "yes", "wheelchair": "no"}}, {"type": "node", "id": 359692293, "lat": 47.499542, "lon": 8.7201703, "tags": {"amenity": "restaurant", "cuisine": "international;burger;regional;tapas", "diet:vegetarian": "yes", "indoor_seating": "yes", "name": "Stricker\u2019s", "opening_hours": "Mo-Th 11:00-23:00; Fr 11:00-24:00; Sa 09:00-24:00; Su 09:00-16:00", "outdoor_seating": "yes", "phone": "+41 52 213 69 69", "smoking": "outside", "toilets": "yes", "toilets:access": "customers", "toilets:wheelchair": "no", "website": "https://restaurant-strickers.ch/", "wheelchair": "no"}}, {"type": "node", "id": 359692440, "lat": 47.5019996, "lon": 8.7185647, "tags": {"amenity": "restaurant", "cuisine": "italian", "delivery": "yes", "level": "0", "name": "Bellevue", "opening_hours": "Mo-Su 10:00-23:00", "outdoor_seating": "yes", "takeaway": "yes", "website": "https://bellevue-pizzeria.ch/", "wheelchair": "no"}}, {"type": "node", "id": 359692842, "lat": 47.5023945, "lon": 8.7182843, "tags": {"amenity": "restaurant", "name": "Stadion", "opening_hours": "Mo-Fr 06:45-23:00; Sa 08:00-19:00; Su 08:00-14:00"}}, {"type": "node", "id": 359693315, "lat": 47.5060238, "lon": 8.7148178, "tags": {"amenity": "restaurant", "check_date": "2023-10-01", "name": "Central", "opening_hours": "Mo-Fr 08:00-14:00, 16:00-23:00; Sa 17:00-23:00"}}, {"type": "node", "id": 359694751, "lat": 47.504206, "lon": 8.720648, "tags": {"addr:city": "Winterthur", "addr:housenumber": "18", "addr:postcode": "8400", "addr:street": "W\u00fclflingerstrasse", "amenity": "restaurant", "cuisine": "regional", "level": "0", "name": "No18", "opening_hours": "Th-We 11:30-01:00; Th-Fr 11:30-02:00; Sa 15:00-02:00", "website": "https://18-winterthur.ch/"}}, {"type": "node", "id": 359694784, "lat": 47.504621, "lon": 8.7195676, "tags": {"amenity": "restaurant", "check_date": "2023-07-07", "cuisine": "indian", "email": "info@restaurant-tandoor.ch", "fax": "+41 (0)52 223 04 40", "internet_access": "wlan", "internet_access:fee": "no", "name": "Tandoor", "opening_hours": "Mo-Fr 11:00-14:00,18:00-24:00;Sa-Su 18:00-24:00", "phone": "+41 52 222 85 76", "toilets:wheelchair": "no", "website": "http://www.restaurant-tandoor.ch/", "wheelchair": "no"}}, {"type": "node", "id": 359695274, "lat": 47.5052041, "lon": 8.7172595, "tags": {"addr:city": "Winterthur", "addr:housenumber": "23", "addr:postcode": "8400", "addr:street": "Walkestrasse", "amenity": "restaurant", "check_date": "2023-07-07", "cuisine": "pizza;kebab", "delivery": "yes", "name": "Piazza", "old_name": "Blumenthal", "opening_hours": "Mo-Th 17:00-22:30, Fr 17:00-23:00, Sa 12:00-23:00, Su 12:00-22:00", "takeaway": "yes", "website": "http://www.piazzapizza.ch/"}}, {"type": "node", "id": 359701183, "lat": 47.5077581, "lon": 8.7253968, "tags": {"addr:city": "Winterthur", "addr:housenumber": "1", "addr:postcode": "8400", "addr:street": "Blatterstrasse", "amenity": "restaurant", "check_date": "2023-10-07", "cuisine": "regional", "delivery": "no", "name": "\u00c4usserer Lindhof", "opening_hours": "Mo 06:00-13:30; Tu-Fr 06:00-13:30, 16:00-22:00; Sa 08:00-14:00", "opening_hours:signed": "no", "takeaway": "no"}}, {"type": "node", "id": 369825427, "lat": 47.4961895, "lon": 8.6986067, "tags": {"amenity": "restaurant", "name": "Salitre"}}, {"type": "node", "id": 380488748, "lat": 47.4991725, "lon": 8.7313796, "tags": {"amenity": "restaurant", "cuisine": "italian", "name": "Punto e Pasta", "opening_hours": "Oct 1-Apr 30 Mo-Su 11:00-23:30; May 1-Sep 30 Mo-Su 11:00-24:00", "website": "https://punto-et-pasta.ch/", "wheelchair": "yes"}}, {"type": "node", "id": 382989332, "lat": 47.496626, "lon": 8.7274275, "tags": {"addr:city": "Winterthur", "addr:country": "CH", "addr:housenumber": "1", "addr:postcode": "8400", "addr:street": "B\u00fcelrainstrasse", "amenity": "restaurant", "cuisine": "asian", "level": "0", "name": "Barnabas", "opening_hours": "Tu-Sa 18:00-23:00", "outdoor_seating": "yes", "phone": "+41 52 212 25 45", "website": "https://barnabaswinti.ch/", "wheelchair": "no"}}, {"type": "node", "id": 412728346, "lat": 47.507301, "lon": 8.7108669, "tags": {"amenity": "restaurant", "cuisine": "regional", "name": "Blumenau", "takeaway": "yes"}}, {"type": "node", "id": 412729253, "lat": 47.4984069, "lon": 8.7381431, "tags": {"amenity": "restaurant", "cuisine": "japanese", "name": "Haku", "opening_hours": "Tu-Sa 11:00-14:00,17:30-22:00", "website": "https://www.haku-restaurant.ch/home", "wheelchair": "limited"}}, {"type": "node", "id": 412760190, "lat": 47.4912979, "lon": 8.7075577, "tags": {"addr:city": "Winterthur", "addr:housenumber": "3", "addr:postcode": "8406", "addr:street": "Stationsstrasse", "amenity": "restaurant", "cuisine": "portuguese", "name": "Oliveira", "opening_hours": "Tu-Fr 10:30-22:00; Sa 10:00-22:00; Su 10:00-20:00", "wheelchair": "no"}}, {"type": "node", "id": 441314886, "lat": 47.4803434, "lon": 8.7639702, "tags": {"amenity": "restaurant", "name": "Freieck", "opening_hours": "Su-Tu 10:00-23:30, Fr,Sa 10:00-00:30"}}, {"type": "node", "id": 471628000, "lat": 47.4994389, "lon": 8.7277569, "tags": {"addr:city": "Winterthur", "addr:country": "CH", "addr:housenumber": "45", "addr:postcode": "8400", "addr:street": "Marktgasse", "alt_name": "Molino Winterthur", "amenity": "restaurant", "branch": "Winterthur", "brand": "Molino", "check_date:opening_hours": "2024-03-06", "cuisine": "pizza", "internet_access": "wlan", "internet_access:fee": "no", "name": "Molino", "opening_hours": "Mo-Su 10:00-23:00", "operator": "Ospena Group", "website": "https://molino.ch/de/pizzeria-ristorante-molino-winterthur", "wheelchair": "limited"}}, {"type": "node", "id": 498891528, "lat": 47.5071524, "lon": 8.725742, "tags": {"addr:city": "Winterthur", "addr:housenumber": "35", "addr:postcode": "8400", "addr:street": "Brunngasse", "amenity": "restaurant", "cuisine": "pizza", "delivery": "no", "diet:vegetarian": "yes", "name": "San Remo", "opening_hours": "Mo-Fr 10:00-14:00,17:00-23:00; Sa 17:00-23:30", "takeaway": "yes", "wheelchair": "no"}}, {"type": "node", "id": 534876365, "lat": 47.5050499, "lon": 8.7184541, "tags": {"amenity": "restaurant", "check_date": "2023-07-07", "name": "Buon Gusto", "opening_hours": "Mo-Fr 11:00-14:00, Mo-Fr 17:00-22:00+; Sa 18:00-22:00+", "outdoor_seating": "yes"}}, {"type": "node", "id": 534878149, "lat": 47.5048564, "lon": 8.7189785, "tags": {"addr:city": "Winterthur", "addr:housenumber": "28", "addr:postcode": "8400", "addr:street": "W\u00fclflingerstrasse", "amenity": "restaurant", "check_date": "2023-07-07", "cuisine": "grill;salad;bread", "email": "nachbarsbox@bluewin.ch", "name": "nachbarsbox", "opening_hours": "Mo, Tu, Th 07:00-18:00; We, Fr 07:00-24:00; Sa, Su, PH off", "outdoor_seating": "yes", "phone": "+41 52 544 51 80", "smoking": "outside", "takeaway": "yes", "website": "https://www.facebook.com/nachbarsbox/"}}, {"type": "node", "id": 534917835, "lat": 47.4979559, "lon": 8.7313352, "tags": {"addr:city": "Winterthur", "addr:housenumber": "8", "addr:postcode": "8403", "addr:street": "Technikumstrasse", "amenity": "restaurant", "diet:vegetarian": "yes", "name": "Bistro Alte Kaserne", "opening_hours": "Mo-Fr 09:00-22:30; Sa 15:00-22:30", "phone": "052 267 57 75", "website": "https://altekaserne.ch/bistro/"}}, {"type": "node", "id": 548913444, "lat": 47.512034, "lon": 8.6848455, "tags": {"amenity": "restaurant", "name": "Schwimmbad W\u00fclflingen"}}, {"type": "node", "id": 548915072, "lat": 47.5163992, "lon": 8.6795583, "tags": {"amenity": "restaurant", "name": "Weinberg"}}, {"type": "node", "id": 548920489, "lat": 47.5026529, "lon": 8.7198587, "tags": {"amenity": "restaurant", "cuisine": "spanish", "name": "La Bodega Carlo", "opening_hours": "Tu-Fr 08:30-14:00,17:00-23:00; Sa 09:30-14:00,17:00-23:00", "wheelchair": "limited"}}, {"type": "node", "id": 548920518, "lat": 47.5012974, "lon": 8.7212681, "tags": {"amenity": "restaurant", "cuisine": "italian", "email": "info@osteriadelfiore.ch", "name": "Osteria del fiore", "opening_hours": "Mo-Fr 11:30-14:00,18:00-23:00; Sa 16:00-24:00; Su 16:00-22:00", "phone": "+41 52 202 44 88", "website": "https://www.osteriadelfiore.ch/"}}, {"type": "node", "id": 548920700, "lat": 47.4989065, "lon": 8.7212551, "tags": {"amenity": "restaurant", "cuisine": "asian", "indoor_seating": "yes", "level": "0", "name": "Fuji", "opening_hours": "Mo-Sa 11:00-22:00; Su 12:00-22:00", "outdoor_seating": "yes", "self_service": "yes", "takeaway": "yes", "website": "https://fujirestaurant.ch/", "wheelchair": "yes"}}, {"type": "node", "id": 556746551, "lat": 47.4941104, "lon": 8.714503, "tags": {"amenity": "restaurant", "cuisine": "pizza", "indoor_seating": "yes", "name": "Pizzeria Schwanen", "outdoor_seating": "yes"}}, {"type": "node", "id": 560156308, "lat": 47.5011461, "lon": 8.7211262, "tags": {"addr:city": "Winterthur", "addr:housenumber": "23", "addr:postcode": "8400", "addr:street": "Wartstrasse", "air_conditioning": "no", "amenity": "restaurant", "bar": "no", "capacity": "30", "check_date:opening_hours": "2024-01-14", "cuisine": "indian", "email": "mailto:%20maharajacurry@gmail.com", "level": "0", "name": "Maharaja Curry", "opening_hours": "Mo-Fr 11:30-14:00,18:00-23:00; Sa 18:00-23:00", "outdoor_seating": "no", "phone": "+41522039988", "reservation": "yes", "smoking": "no", "takeaway": "yes", "website": "https://www.maharaja-curry.ch", "wheelchair": "no"}}, {"type": "node", "id": 560157037, "lat": 47.5017718, "lon": 8.7209446, "tags": {"amenity": "restaurant", "check_date": "2023-06-27", "cuisine": "tibetan", "name": "Tibet Bistro", "opening_hours": "Tu 17:30-21:30; We-Su 11:30-14:00, 17:30-21:30"}}, {"type": "node", "id": 561504452, "lat": 47.4978808, "lon": 8.7235621, "tags": {"amenity": "restaurant", "check_date": "2023-06-29", "name": "La Torre"}}, {"type": "node", "id": 561524250, "lat": 47.4981673, "lon": 8.7291301, "tags": {"addr:city": "Winterthur", "addr:country": "CH", "addr:housenumber": "25", "addr:postcode": "8400", "addr:street": "Steinberggasse", "amenity": "restaurant", "check_date": "2023-08-10", "cuisine": "regional;mediterranean", "level": "0", "name": "Winti-Kanne", "opening_hours": "Tu-Fr 11:30-14:00,18:00+; Sa 18:00+; Mo,Su open \"Auf Anfrage\"; PH closed", "reservation": "yes", "toilets": "yes", "website": "https://www.wintikanne.ch/"}}, {"type": "node", "id": 564670042, "lat": 47.4995031, "lon": 8.7244639, "tags": {"addr:city": "Winterthur", "addr:country": "CH", "addr:housenumber": "143", "addr:postcode": "8400", "addr:street": "Stadthausstrasse", "amenity": "restaurant", "check_date": "2023-04-08", "cuisine": "burger", "name": "Boulevard", "opening_hours": "Mo-Th 05:45-00:30; Fr 05:45-02:30; Sa 09:00-02:30; Su 11:00-00:30", "phone": "+41 52 212 26 10", "smoking": "outside", "wheelchair": "no"}}, {"type": "node", "id": 564888514, "lat": 47.4986288, "lon": 8.7261468, "tags": {"addr:city": "Winterthur", "addr:country": "CH", "addr:housenumber": "7", "addr:postcode": "8400", "addr:street": "Neumarkt", "amenity": "restaurant", "level": "0", "microbrewery": "yes", "name": "Brauhaus", "opening_hours": "We,Th 11:00-23:30; Fr 16:00-23:30; Sa 14:00-23:30; Su 10:00-15:00", "outdoor_seating": "yes", "smoking": "outside", "toilets:wheelchair": "no", "website": "https://www.brauhaus.ch/gastro-winterthur", "wheelchair": "limited"}}, {"type": "node", "id": 564888543, "lat": 47.4986144, "lon": 8.7267513, "tags": {"addr:city": "Winterthur", "addr:country": "CH", "addr:housenumber": "6", "addr:postcode": "8400", "addr:street": "Neumarkt", "amenity": "restaurant", "check_date:opening_hours": "2023-07-08", "cuisine": "regional", "name": "Restaurant Alterszentrum Neumarkt", "opening_hours": "Mo-Sa 07:30-17:00; Su 09:00-17:00", "wheelchair": "yes"}}, {"type": "node", "id": 564917957, "lat": 47.5066848, "lon": 8.6811413, "tags": {"amenity": "restaurant", "name": "Bahnhof W\u00fclflingen"}}, {"type": "node", "id": 593846241, "lat": 47.4994087, "lon": 8.71984, "tags": {"addr:city": "Winterthur", "addr:housenumber": "8", "addr:postcode": "8400", "addr:street": "Sch\u00fctzenstrasse", "air_conditioning": "no", "amenity": "restaurant", "bar": "no", "capacity": "40", "cuisine": "mexican", "drive_through": "no", "internet_access": "no", "level": "0", "name": "El Burrito Feliz", "opening_hours": "Mo-Sa 11:30-14:00,17:30-22:00; PH closed", "outdoor_seating": "yes", "phone": "+41 765138884", "reservation": "yes", "smoking": "outside", "takeaway": "yes", "website": "https://www.elburritofeliz.ch/", "wheelchair": "limited"}}, {"type": "node", "id": 632149361, "lat": 47.4822603, "lon": 8.7612293, "tags": {"amenity": "restaurant", "name": "R\u00f6ssli", "opening_hours": "Tu-Fr 08:30-23:00; Sa 11:00-23:00; Su 11:00-17:00"}}, {"type": "node", "id": 651516557, "lat": 47.4840926, "lon": 8.7597534, "tags": {"amenity": "restaurant", "cuisine": "pizza", "name": "Sonne"}}, {"type": "node", "id": 659475608, "lat": 47.4981027, "lon": 8.7409953, "tags": {"amenity": "restaurant", "cuisine": "regional", "name": "Hermannseck", "opening_hours": "Mo-Fr 09:00-23:00; Sa 17:00-23:30", "wheelchair": "no"}}, {"type": "node", "id": 663893225, "lat": 47.5108415, "lon": 8.6951973, "tags": {"amenity": "restaurant", "name": "Eulach-Treff"}}, {"type": "node", "id": 677194766, "lat": 47.5035719, "lon": 8.7521674, "tags": {"amenity": "restaurant", "cuisine": "thai", "diet:vegetarian": "yes", "name": "Tom Yam", "opening_hours": "Mo-Fr 11:00-14:00,17:30-23:00; Sa 17:30-23:00"}}, {"type": "node", "id": 703057903, "lat": 47.498523, "lon": 8.7261594, "tags": {"addr:city": "Winterthur", "addr:country": "CH", "addr:housenumber": "5", "addr:postcode": "8400", "addr:street": "Neumarkt", "amenity": "restaurant", "cuisine": "burger", "name": "Ocean Five", "opening_hours": "Mo-Th 11:00-00:30, Fr 11:00-02:30, Sa 12:00-02:30, Su 17:00-00:30", "website": "https://www.oceanfive.ch/"}}, {"type": "node", "id": 703057906, "lat": 47.4988298, "lon": 8.7261226, "tags": {"addr:housenumber": "13", "addr:street": "Neumarkt", "amenity": "restaurant", "check_date": "2023-07-07", "contact:website": "http://www.goldeneshorn.ch/", "cuisine": "turkish", "name": "Zum Goldenen Horn", "opening_hours": "Mo-Th 11:00-23:00; Fr, Sa 11:00-00:00; Su 12:00-21:00", "wheelchair": "limited"}}, {"type": "node", "id": 705760974, "lat": 47.4901635, "lon": 8.7256654, "tags": {"amenity": "restaurant", "name": "Breite", "opening_hours:covid19": "off", "wheelchair": "no"}}, {"type": "node", "id": 710880571, "lat": 47.4983744, "lon": 8.7282627, "tags": {"addr:city": "Winterthur", "addr:country": "CH", "addr:housenumber": "26", "addr:postcode": "8400", "addr:street": "Steinberggasse", "amenity": "restaurant", "email": "info@silberkeller.ch", "name": "Silberkeller", "outdoor_seating": "no", "phone": "+41 52 212 94 14", "website": "http://www.silberkeller.ch"}}, {"type": "node", "id": 712608636, "lat": 47.4980881, "lon": 8.7276003, "tags": {"amenity": "restaurant", "check_date": "2023-07-07", "cuisine": "chinese", "name": "China Garden", "opening_hours": "Mo-Sa 11:00-14:00,18:00-22:00"}}, {"type": "node", "id": 749913670, "lat": 47.4991204, "lon": 8.7274751, "tags": {"addr:city": "Winterthur", "addr:country": "CH", "addr:housenumber": "49", "addr:street": "Marktgasse", "amenity": "restaurant", "check_date:opening_hours": "2023-07-24", "name": "Bistro La Couronne", "opening_hours:signed": "no", "phone": "+41 52 208 18 18", "website": "https://www.kronewinterthur.ch/"}}, {"type": "node", "id": 763523652, "lat": 47.4981734, "lon": 8.731688, "tags": {"addr:city": "Winterthur", "addr:country": "CH", "addr:housenumber": "8", "addr:postcode": "8400", "addr:street": "T\u00f6sstalstrasse", "amenity": "restaurant", "name": "De Tapas", "opening_hours": "Tu-Fr 17:00-23:00; Sa 15:00-23:00"}}, {"type": "node", "id": 763523653, "lat": 47.4981861, "lon": 8.731585, "tags": {"addr:city": "Winterthur", "addr:country": "CH", "addr:housenumber": "6", "addr:postcode": "8400", "addr:street": "T\u00f6sstalstrasse", "amenity": "restaurant", "name": "La Panetteria", "opening_hours": "Mo-Fr 11:00-14:00,17:30-23:00; Sa 18:00-23:00"}}, {"type": "node", "id": 854335396, "lat": 47.513644, "lon": 8.7644672, "tags": {"amenity": "restaurant", "contact:email": "technorama@zfv.ch", "contact:phone": "+41 52 244 08 70", "contact:website": "https://www.technorama.ch/de/besuchen/verpflegung", "indoor_seating": "yes", "internet_access": "wlan", "name": "Restaurant Technorama (ZFV)", "opening_hours": "Mo-Su 09:00-17:00", "opening_hours:kitchen": "Mo-Su 11:15-16:30", "outdoor_seating": "yes", "payment:american_express": "yes", "payment:coins": "yes", "payment:jcb": "yes", "payment:maestro": "yes", "payment:mastercard": "yes", "payment:notes": "yes", "payment:visa": "yes", "payment:visa_electron": "yes", "self_service": "yes", "wheelchair": "yes"}}, {"type": "node", "id": 966324137, "lat": 47.5042768, "lon": 8.7255421, "tags": {"amenity": "restaurant", "check_date": "2024-01-02", "name": "Banane", "opening_hours": "Mo-Su 11:30-14:00, 18:00-22:30"}}, {"type": "node", "id": 1328945988, "lat": 47.4849589, "lon": 8.7629776, "tags": {"amenity": "restaurant", "level": "0", "name": "Mare et Monti", "wheelchair": "yes"}}, {"type": "node", "id": 1479407508, "lat": 47.5113417, "lon": 8.699504, "tags": {"addr:city": "Winterthur", "addr:housenumber": "214", "addr:postcode": "8408", "addr:street": "W\u00fclflingerstrasse", "amenity": "restaurant", "cuisine": "regional", "email": "winterthur@schloss-wuelflingen.ch", "name": "Schloss W\u00fclflingen", "opening_hours": "Mo-Fr 11:00-14:00,17:30-22:00; Sa-Su 11:00-22:00", "outdoor_seating": "yes", "phone": "+41 52 222 18 67", "toilets:wheelchair": "yes", "website": "http://www.schlosswuelflingen.ch/", "wheelchair": "limited", "wheelchair:description": "Einige R\u00e4ume nur \u00fcber hohe Schwellen erreichbar, Hilfe erforderlich. Lift vorhanden."}}, {"type": "node", "id": 1488980360, "lat": 47.4907705, "lon": 8.712539, "tags": {"amenity": "restaurant", "cuisine": "regional", "name": "Zum gr\u00fcnen Hund", "opening_hours": "\"temporarily closed\"", "phone": "+41 52 212 13 36", "website": "http://gruenerhund.ch"}}, {"type": "node", "id": 1519474203, "lat": 47.4853872, "lon": 8.7627865, "tags": {"addr:city": "Winterthur", "addr:housenumber": "40", "addr:postcode": "8405", "addr:street": "Hinterdorfstrasse", "alt_name": "Migros Restaurant Seen", "amenity": "restaurant", "branch": "Winterthur Seen", "brand": "Migros Restaurant", "brand:wikidata": "Q111803848", "brand:wikipedia": "de:Migros", "cuisine": "international", "level": "1", "name": "Migros Restaurant", "opening_hours": "Mo-We 08:00-19:00; Th,Fr 08:00-20:00; Sa 08:00-18:00", "operator": "Genossenschaft Migros Ostschweiz", "outdoor_seating": "no", "self_service": "yes", "website": "https://filialen.migros.ch/de/migros-restaurant-winterthur-seen"}}, {"type": "node", "id": 2172799512, "lat": 47.504091, "lon": 8.7294585, "tags": {"addr:city": "Winterthur", "addr:housenumber": "27", "addr:postcode": "8400", "addr:street": "Lindstrasse", "amenity": "restaurant", "cuisine": "thai", "name": "Siam Chili", "opening_hours": "Mo 09:00-14:30; Tu-Fr 09:00-20:00", "phone": "+41 52 202 94 44", "takeaway": "yes"}}, {"type": "node", "id": 2424718821, "lat": 47.5063228, "lon": 8.7571254, "tags": {"amenity": "restaurant", "cuisine": "italian", "name": "Restaurant Pizzeria Schmiede", "opening_hours": "Mo-Fr 11:00-13:00, 17:00-22:00; Sa-Su 17:00-22:00"}}, {"type": "node", "id": 2424720789, "lat": 47.5078362, "lon": 8.7585596, "tags": {"addr:city": "Winterthur", "addr:housenumber": "4", "addr:postcode": "8404", "addr:street": "R\u00f6mertorstrasse", "amenity": "restaurant", "loc_name": "Bahnh\u00f6fli", "name": "Bahnhof"}}, {"type": "node", "id": 2424723261, "lat": 47.5072954, "lon": 8.7541469, "tags": {"amenity": "restaurant", "cuisine": "regional", "diet:vegetarian": "yes", "name": "Restaurant Sonneck", "opening_hours": "Mo-Th 09:00-14:00, Fr 09:00-14:00, Mo-Th 16:30-23:30, Fr 16:30-24:00", "wheelchair": "yes"}}, {"type": "node", "id": 2424724937, "lat": 47.5075362, "lon": 8.7551433, "tags": {"amenity": "restaurant", "cuisine": "thai", "diet:vegetarian": "yes", "name": "Thai Lotos Garden", "opening_hours": "Tu-Fr 11:30-14:00,17:30-23:00; Sa 17:30-23:00", "wheelchair": "no"}}, {"type": "node", "id": 2451608588, "lat": 47.5048376, "lon": 8.7660267, "tags": {"addr:city": "Winterthur", "addr:housename": "Giesserei", "addr:housenumber": "71", "addr:postcode": "8404", "addr:street": "Ida-Str\u00e4uli-Strasse", "amenity": "restaurant", "cuisine": "tibetan;sushi;indian;western", "name": "Shimbala", "opening_hours": "Mo-Fr 11:00-14:30, 17:30-22:00; Sa 17:00-22:00", "phone": "+41 52 229 19 77", "toilets:wheelchair": "no", "website": "https://shimbala.ch/", "wheelchair": "yes"}}, {"type": "node", "id": 2451641185, "lat": 47.5044596, "lon": 8.7636097, "tags": {"addr:city": "Winterthur", "addr:country": "CH", "addr:postcode": "8404", "addr:street": "Else-Z\u00fcblin-Strasse", "amenity": "restaurant", "cuisine": "pizza", "name": "Gerry's Bar", "phone": "+41 52 202 95 64", "smoking": "no", "website": "https://www.gerrysbar.ch/", "wheelchair": "yes"}}, {"type": "node", "id": 2451643514, "lat": 47.504692, "lon": 8.7628234, "tags": {"addr:housename": "Halle 710", "amenity": "restaurant", "name": "Restaurant Eulachpark", "opening_hours": "Tu 10:00-15:00, We-Th 10:00-22:00, Fr-Sa 10:00+, Su 11:00-21:00", "smoking": "no", "website": "https://www.restaurant-eulachpark.ch/", "wheelchair": "yes"}}, {"type": "node", "id": 2457539648, "lat": 47.4866133, "lon": 8.7594559, "tags": {"amenity": "restaurant", "cuisine": "regional", "microbrewery": "yes", "name": "Restaurant Burehus", "opening_hours": "Mo-Fr 09:00-23:30; Su 11:00-17:00"}}, {"type": "node", "id": 2466736061, "lat": 47.5006088, "lon": 8.7270725, "tags": {"amenity": "restaurant", "check_date": "2023-06-29", "cuisine": "mexican", "name": "Tres Amigos", "opening_hours": "Mo-Th 10:00-24:00, Fr-Sa 10:00-02:00, Su 10:00-23:00", "website": "https://www.tresamigos.ch/winterthur/", "wheelchair": "no"}}, {"type": "node", "id": 2486983218, "lat": 47.5060346, "lon": 8.7603588, "tags": {"addr:housenumber": "2a", "addr:street": "Hegifeldstrasse", "amenity": "restaurant", "cuisine": "coffee_shop", "email": "kafimueli@qhs.ch", "name": "Kafi M\u00fcli", "opening_hours": "Mo-Fr 08:30-16:30", "phone": "+41 52 243 38 45", "website": "https://www.kafimueli.ch"}}, {"type": "node", "id": 2493971952, "lat": 47.5010807, "lon": 8.732526, "tags": {"amenity": "restaurant", "name": "Bloom", "opening_hours": "Mo-Fr 06:30-23:00; Sa,Su 07:00-23:00", "website": "https://bloom.ch/"}}, {"type": "node", "id": 2540938577, "lat": 47.4901982, "lon": 8.709365, "tags": {"amenity": "restaurant", "cuisine": "nepalese", "diet:vegan": "no", "diet:vegetarian": "yes", "name": "Asia King"}}, {"type": "node", "id": 2546033390, "lat": 47.5013027, "lon": 8.7258319, "tags": {"addr:city": "Winterthur", "addr:housenumber": "74", "addr:postcode": "8400", "addr:street": "Museumstrasse", "amenity": "restaurant", "name": "Cooperativa", "opening_hours": "Tu-Sa 16:00-23:00"}}, {"type": "node", "id": 2570468652, "lat": 47.4943016, "lon": 8.7399559, "tags": {"addr:city": "Winterthur", "addr:housenumber": "70", "addr:postcode": "8400", "addr:street": "T\u00f6sstalstrasse", "amenity": "restaurant", "cuisine": "italian;french;spanish", "diet:vegetarian": "yes", "email": "info@algiardino.ch", "name": "Al Giardino", "opening_hours": "Tu-Th 11:30-14:00,17:30-23:30; Fr 11:30-14:00,17:30-24:00; Sa 17:30-24:00; Su,Mo off", "website": "https://algiardino.ch/"}}, {"type": "node", "id": 2666984905, "lat": 47.5038264, "lon": 8.7285402, "tags": {"addr:housenumber": "27b", "addr:street": "Theaterstrasse", "amenity": "restaurant", "name": "Bistro Gate 27", "opening_hours": "Mo-Fr 09:00-14:30", "wheelchair": "yes"}}, {"type": "node", "id": 2795232150, "lat": 47.5001143, "lon": 8.729312, "tags": {"amenity": "restaurant", "cuisine": "thai", "name": "Thai Bamboo", "name:de": "Thai Style", "name:en": "Thai Style", "name:fr": "Thai Style", "opening_hours": "Mo-Sa 11:30-14:00,17:00-22:00; Su 17:00-22:00", "takeaway": "yes", "website": "https://thaistyle-winterthur.ch/"}}, {"type": "node", "id": 2955638928, "lat": 47.5197332, "lon": 8.6842279, "tags": {"amenity": "restaurant", "name": "Taggenberg", "opening_hours:covid19": "off"}}, {"type": "node", "id": 3275087003, "lat": 47.5010925, "lon": 8.7355238, "tags": {"access": "private", "amenity": "restaurant", "level": "1", "name": "Culinarium Museumstrasse", "opening_hours": "Mo-Fr 11:30-13:30", "operator": "SV Group", "smoking": "no", "takeaway": "yes", "website": "http://culinarium-museumstrasse.sv-group.ch/"}}, {"type": "node", "id": 3784367094, "lat": 47.4983033, "lon": 8.7212739, "tags": {"addr:city": "Winterthur", "addr:housenumber": "1-3", "addr:postcode": "8400", "addr:street": "Z\u00fcrcherstrasse", "amenity": "restaurant", "branch": "Winterthur Kesselhaus", "brand:wikidata": "Q2381223", "cuisine": "indian;japanese;thai", "diet:vegetarian": "yes", "indoor_seating": "yes", "level": "0", "name": "nooba", "opening_hours": "Mo-Fr 10:00-20:00; Sa 10:00-18:00", "outdoor_seating": "yes", "takeaway": "yes", "toilets": "yes", "wheelchair": "yes"}}, {"type": "node", "id": 3814637457, "lat": 47.496146, "lon": 8.7401724, "tags": {"amenity": "restaurant", "name": "Restaurant Eulachstrand", "operator": "Verein L\u00e4besruum", "website": "https://www.laebesruum.ch/restaurant/", "wheelchair": "limited"}}, {"type": "node", "id": 3976628874, "lat": 47.5052219, "lon": 8.7097444, "tags": {"amenity": "restaurant", "cuisine": "pizza", "delivery:covid19": "yes", "name": "Caliente", "takeaway": "yes", "takeaway:covid19": "yes", "toilets:wheelchair": "no", "wheelchair": "no"}}, {"type": "node", "id": 4009059218, "lat": 47.4965966, "lon": 8.7479413, "tags": {"addr:city": "Winterthur", "addr:housenumber": "1", "addr:postcode": "8404", "addr:street": "Industriestrasse", "amenity": "restaurant", "check_date:opening_hours": "2022-10-30", "contact:email": "info@bistrosein.ch", "contact:phone": "+41 52 235 11 05", "name": "Bistro SEIN", "note": "Im Zentrum Gr\u00fcze", "opening_hours": "Tu-Fr 09:00-18:00", "operator": "Verein Mehrwert", "website": "https://www.bistrosein.ch/"}}, {"type": "node", "id": 4095400151, "lat": 47.4980587, "lon": 8.7212955, "tags": {"addr:city": "Winterthur", "addr:housenumber": "1-3", "addr:postcode": "8400", "addr:street": "Z\u00fcrcherstrasse", "alt_name": "Yooji's Kesselhaus", "amenity": "restaurant", "branch": "Winterthur Kesselhaus", "brand": "Yooji's", "cuisine": "sushi", "delivery": "yes", "email": "kesselhaus@yoojis.ch", "level": "0", "name": "Yooji's", "opening_hours": "Mo-Sa 11:00-23:00; Su 17:00-22:00", "operator": "Two Spice", "phone": "+41 52 203 18 15", "takeaway": "yes", "website": "https://www.yoojis.com/standorte/winterthur-i-kesselhaus/"}}, {"type": "node", "id": 4095400168, "lat": 47.4747413, "lon": 8.7944503, "tags": {"amenity": "restaurant", "name": "Frohsinn Eidberg"}}, {"type": "node", "id": 4095400169, "lat": 47.4972039, "lon": 8.7192311, "tags": {"amenity": "restaurant", "name": "Pionier", "opening_hours": "Mo-Fr 07:30-15:30", "wheelchair": "yes"}}, {"type": "node", "id": 4095400171, "lat": 47.4935324, "lon": 8.7593093, "tags": {"addr:city": "Winterthur", "addr:housenumber": "28", "addr:postcode": "8404", "addr:street": "Rudolf-Diesel-Strasse", "amenity": "restaurant", "bar": "yes", "cuisine": "asian;chinese", "name": "Echt KungFu", "opening_hours": "Tu-Sa 11:00-14:00, 16:30-22:00; Su 16:30-22:00", "outdoor_seating": "yes", "phone": "+41 52 232 01 88", "website": "https://www.echtkungfu.ch/"}}, {"type": "node", "id": 4095400172, "lat": 47.5101955, "lon": 8.7301421, "tags": {"amenity": "restaurant", "name": "Trois Tilleuls", "opening_hours": "Mo-Su 08:00-22:00"}}, {"type": "node", "id": 4095400173, "lat": 47.5016738, "lon": 8.7288079, "tags": {"amenity": "restaurant", "name": "Villa Str\u00e4uli", "opening_hours": "May-Sep: Tu-Fr 11:30-14:00; Nov-Mar: Tu-Fr 11:30-14:00", "phone": "+41 52 260 06 15", "website": "https://www.villastraeuli.ch/", "wikidata": "Q66741901"}}, {"type": "node", "id": 4095400175, "lat": 47.5010572, "lon": 8.7463217, "tags": {"addr:city": "Winterthur", "addr:housenumber": "71", "addr:postcode": "8404", "addr:street": "R\u00f6merstrasse", "amenity": "restaurant", "name": "Stadtrain", "opening_hours": "Mo-Fr 08:30-23:30; Sa 11:00-23:30"}}, {"type": "node", "id": 4095400186, "lat": 47.4983532, "lon": 8.7247212, "tags": {"addr:city": "Winterthur", "addr:housenumber": "2", "addr:postcode": "8400", "addr:street": "Archplatz", "amenity": "restaurant", "branch": "Winterthur Archh\u00f6fe", "check_date": "2023-06-29", "cuisine": "sushi", "level": "0", "name": "Negishi Sushi Bar", "operator": "Fredy Wiesner Gastronomie", "website": "https://www.negishi.ch/winterthur-archhoefe"}}, {"type": "node", "id": 4095400191, "lat": 47.4917711, "lon": 8.7502515, "tags": {"addr:city": "Winterthur", "addr:housenumber": "10", "addr:postcode": "8400", "addr:street": "Scheideggstrasse", "amenity": "restaurant", "cuisine": "pizza", "name": "Gutschick", "opening_hours": "Mo-Sa 08:30-23:00; Su 09:30-22:00"}}, {"type": "node", "id": 4095400192, "lat": 47.4913296, "lon": 8.7497603, "tags": {"addr:city": "Winterthur", "addr:housenumber": "6", "addr:postcode": "8400", "addr:street": "Scheideggstrasse", "amenity": "restaurant", "cuisine": "pizza", "name": "Gianni's", "opening_hours": "Mo-Fr 11:00-14:00,17:00-22:00; Sa,Su 17:00-22:00"}}, {"type": "node", "id": 4095400193, "lat": 47.5058456, "lon": 8.7194072, "tags": {"amenity": "restaurant", "name": "Nachbarsgarten", "opening_hours": "Tu-Sa 17:00-23:30"}}, {"type": "node", "id": 4095987418, "lat": 47.501673, "lon": 8.7235598, "tags": {"addr:city": "Winterthur", "addr:housenumber": "21", "addr:postcode": "8400", "addr:street": "Rudolfstrasse", "amenity": "restaurant", "cuisine": "italian", "delivery": "Mo-Sa 11:30-13:30,17:30-21:30; Su 17:30-21:30", "indoor_seating": "yes", "name": "Gastronomie am Gleis", "opening_hours": "Mo-We 08:00-23:00; Th 08:00-24:00; Fr 08:00-01:00; Sa 08:00-00:30; Su 13:00-23:00", "outdoor_seating": "yes", "website": "https://www.gastronomieamgleiswinterthur.ch/", "wheelchair": "yes"}}, {"type": "node", "id": 4095987419, "lat": 47.5009501, "lon": 8.7222403, "tags": {"addr:city": "Winterthur", "addr:housenumber": "12", "addr:postcode": "8400", "addr:street": "Wartstrasse", "amenity": "restaurant", "check_date": "2023-06-27", "cuisine": "thai", "level": "0", "name": "Thai Bistro", "opening_hours": "11:30-22:00", "outdoor_seating": "yes", "reservation": "yes", "takeaway": "yes", "toilets": "yes", "website": "https://www.malaithai.ch", "wheelchair": "limited"}}, {"type": "node", "id": 4095987421, "lat": 47.4917878, "lon": 8.7137065, "tags": {"addr:city": "Winterthur", "addr:housenumber": "30", "addr:postcode": "8406", "addr:street": "T\u00f6ssfeldstrasse", "amenity": "restaurant", "name": "Ristorante Caruso"}}, {"type": "node", "id": 4095987422, "lat": 47.4917592, "lon": 8.7108522, "tags": {"addr:city": "Winterthur", "addr:housenumber": "42", "addr:postcode": "8406", "addr:street": "Agnesstrasse", "amenity": "restaurant", "name": "Ristorante Pizzeria Cardinal"}}, {"type": "node", "id": 4095987423, "lat": 47.4984732, "lon": 8.7363658, "tags": {"addr:city": "Winterthur", "addr:housenumber": "27", "addr:postcode": "8400", "addr:street": "St. Gallerstrasse", "amenity": "restaurant", "cuisine": "thai", "name": "Sanook", "opening_hours": "Mo-Fr 11:00-14:00; Mo-Th 17:30-22:00; Fr-Sa 17:30-05:00"}}, {"type": "node", "id": 4095987424, "lat": 47.4879822, "lon": 8.7089972, "tags": {"addr:city": "Winterthur", "addr:housenumber": "50", "addr:postcode": "8406", "addr:street": "Klosterstrasse", "amenity": "restaurant", "check_date": "2024-01-20", "cuisine": "italian", "name": "Castello"}}, {"type": "node", "id": 4095987425, "lat": 47.497165, "lon": 8.7153392, "tags": {"addr:city": "Winterthur", "addr:housenumber": "32", "addr:postcode": "8400", "addr:street": "Z\u00fcrcherstrasse", "amenity": "restaurant", "cuisine": "pizza;barbecue;kebab", "indoor_seating": "yes", "level": "0", "name": "Lavin", "opening_hours": "Mo 10:00-22:00; Tu-Su 10:00-24:00", "outdoor_seating": "yes", "takeaway": "yes", "wheelchair": "no"}}, {"type": "node", "id": 4095987426, "lat": 47.5148496, "lon": 8.7591591, "tags": {"addr:city": "Winterthur", "addr:housenumber": "1", "addr:postcode": "8404", "addr:street": "Sonnenblickstrasse", "amenity": "restaurant", "cuisine": "pizza", "diet:vegetarian": "yes", "name": "Euro Pizza", "opening_hours": "Tu-Fr 11:00-13:30, Tu-Sa 17:00-22:00"}}, {"type": "node", "id": 4095987429, "lat": 47.502298, "lon": 8.7296633, "tags": {"amenity": "restaurant", "name": "Kongresshaus Liebestrasse"}}, {"type": "node", "id": 4095987432, "lat": 47.4974571, "lon": 8.7157786, "tags": {"addr:city": "Winterthur", "addr:housenumber": "30", "addr:postcode": "8400", "addr:street": "Z\u00fcrcherstrasse", "amenity": "restaurant", "level": "0", "name": "Western Saloon Restaurant Harmonie", "opening_hours": "Mo-Fr 11:00-14:00,17:00-23:00", "wheelchair": "limited"}}, {"type": "node", "id": 4095987433, "lat": 47.5076476, "lon": 8.7084093, "tags": {"addr:housenumber": "9", "addr:street": "Fl\u00fcelistrasse", "amenity": "restaurant", "cuisine": "pizza", "name": "Bocciodromo Pizzeria", "opening_hours": "Tu-Fr 14:00-23:00; Sa-Su 11:00-23:00", "phone": "+41 52 222 55 53", "website": "https://bocciodromo.ch/"}}, {"type": "node", "id": 4095987434, "lat": 47.4891927, "lon": 8.7028247, "tags": {"addr:city": "Winterthur", "addr:housenumber": "208", "addr:postcode": "8406", "addr:street": "Z\u00fcrcherstrasse", "amenity": "restaurant", "check_date": "2024-01-03", "cuisine": "swiss;italian;pizza", "delivery": "yes", "name": "Il Sapore", "outdoor_seating": "yes", "phone": "+41 52 222 42 42", "smoking": "outside", "website": "https://www.ilsapore.ch", "wheelchair": "limited"}}, {"type": "node", "id": 4095987435, "lat": 47.5270733, "lon": 8.7515018, "tags": {"addr:city": "Reutlingen (Winterthur)", "addr:housenumber": "67", "addr:postcode": "8404", "addr:street": "Reutlingerstrasse", "amenity": "restaurant", "cuisine": "regional", "name": "Wirtschaft Zur Eintracht", "opening_hours": "Tu-Fr 11:00-24:00; Sa 17:00-24:00", "website": "https://eintracht-reutlingen.ch/"}}, {"type": "node", "id": 4095987437, "lat": 47.4967438, "lon": 8.6763834, "tags": {"addr:city": "Winterthur", "addr:housenumber": "63", "addr:postcode": "8408", "addr:street": "Neuburgstrasse", "amenity": "restaurant", "cuisine": "regional;barbecue;fine_dining;fondue", "delivery": "yes", "name": "Neuburg", "opening_hours": "We-Sa 11:00-14:00,17:30-23:00; Su 11:00-22:00; Mo,Tu off", "outdoor_seating": "yes", "smoking": "outside", "takeaway": "no", "website": "https://neuburg.ch/"}}, {"type": "node", "id": 4095987438, "lat": 47.5169456, "lon": 8.684791, "tags": {"addr:city": "Winterthur", "addr:housenumber": "42", "addr:postcode": "8408", "addr:street": "Maienriedweg", "amenity": "restaurant", "cuisine": "ticinese", "name": "Grotto Maienried"}}, {"type": "node", "id": 4109460415, "lat": 47.5004248, "lon": 8.7226484, "tags": {"addr:city": "Winterthur", "addr:housenumber": "15", "addr:postcode": "8400", "addr:street": "Rudolfstrasse", "amenity": "restaurant", "capacity": "120", "check_date": "2023-06-27", "cuisine": "steak_house", "delivery": "no", "indoor_seating": "yes", "level": "0", "name": "Argentina", "opening_hours": "Mo-Sa 10:00-24:00; Su,PH 10:00-22:00", "outdoor_seating": "yes", "phone": "+41 52 203 53 53", "smoking": "outside", "takeaway": "yes", "website": "https://www.steakhouse-argentina.ch/de/p/standorte/winterthur-1086.html", "wheelchair": "limited"}}, {"type": "node", "id": 4125136764, "lat": 47.4763352, "lon": 8.7041609, "tags": {"addr:city": "Winterthur", "addr:housenumber": "322", "addr:postcode": "8406", "addr:street": "Z\u00fcrcherstrasse", "amenity": "restaurant", "name": "By Elvis", "website": "https://www.byelvis.ch/"}}, {"type": "node", "id": 4127859153, "lat": 47.4944515, "lon": 8.7583632, "tags": {"addr:city": "Winterthur", "addr:housenumber": "19", "addr:postcode": "8404", "addr:street": "Rudolf-Diesel-Strasse", "amenity": "restaurant", "brand": "Coop Restaurant", "brand:wikidata": "Q432564", "brand:wikipedia": "de:Coop (Schweiz)", "cuisine": "german", "name": "Coop Restaurant", "opening_hours": "Mo-Sa 08:00-20:00; PH off", "operator": "Coop Genossenschaft"}}, {"type": "node", "id": 4145958789, "lat": 47.4993039, "lon": 8.745775, "tags": {"addr:city": "Winterthur", "addr:housenumber": "16", "addr:postcode": "8400", "addr:street": "Werkstrasse", "amenity": "restaurant", "leisure": "sports_centre", "name": "Billardcenter Borsalino", "opening_hours": "Mo-Th 14:00-24:00; Fr-Sa 14:00-02:00, Su 14:00-24:00", "sport": "billiards", "website": "https://www.borsalino.li/"}}, {"type": "node", "id": 4153947942, "lat": 47.5010717, "lon": 8.721227, "tags": {"addr:city": "Winterthur", "addr:housenumber": "21", "addr:postcode": "8400", "addr:street": "Wartstrasse", "amenity": "restaurant", "name": "Maharaja Curry", "opening_hours": "Mo-Fr 11:30-14:00,18:00-23:00; Sa 18:00-23:00"}}, {"type": "node", "id": 4395329576, "lat": 47.4907272, "lon": 8.7471475, "tags": {"amenity": "restaurant", "cuisine": "pizza", "name": "Victoria", "opening_hours": "Mo-Sa 08:00-22:00; Su 10:00-22:00"}}, {"type": "node", "id": 4395329789, "lat": 47.4841776, "lon": 8.7597092, "tags": {"amenity": "restaurant", "name": "Sultan"}}, {"type": "node", "id": 4395329792, "lat": 47.4837102, "lon": 8.7606874, "tags": {"addr:city": "Winterthur", "addr:housenumber": "249", "addr:postcode": "8405", "addr:street": "T\u00f6sstalstrasse", "amenity": "restaurant", "cuisine": "asian", "name": "Taste of Asia", "website": "https://www.taste-of-asia.ch/"}}, {"type": "node", "id": 4434577593, "lat": 47.5002649, "lon": 8.7266443, "tags": {"addr:city": "Winterthur", "addr:housenumber": "12", "addr:postcode": "8400", "addr:street": "Stadthausstrasse", "amenity": "restaurant", "cuisine": "italian", "level": "0", "name": "Villa Duchessa", "opening_hours": "Mo-Sa 10:00-23:30; Su 10:30-23:00", "outdoor_seating": "yes", "website": "https://villa-duchessa-winterthur.ch/"}}, {"type": "node", "id": 4486137546, "lat": 47.519068, "lon": 8.7203977, "tags": {"addr:city": "Winterthur", "addr:housenumber": "152", "addr:postcode": "8400", "addr:street": "Schaffhauserstrasse", "alt_name": "Migros Restaurant Rosenberg", "amenity": "restaurant", "branch": "Winterthur Rosenberg", "level": "1", "name": "Migros Restaurant", "operator": "Genossenschaft Migros Ostschweiz", "website": "https://filialen.migros.ch/de/migros-restaurant-winterthur-rosenberg"}}, {"type": "node", "id": 4816412578, "lat": 47.5109569, "lon": 8.692696, "tags": {"amenity": "restaurant", "level": "0", "name": "B\u00e4ren"}}, {"type": "node", "id": 4816412579, "lat": 47.5109301, "lon": 8.6937446, "tags": {"amenity": "restaurant", "cuisine": "pizza", "name": "Da Cosimo"}}, {"type": "node", "id": 4868065118, "lat": 47.4782038, "lon": 8.6987396, "tags": {"addr:city": "Winterthur", "addr:housenumber": "26", "addr:postcode": "8406", "addr:street": "D\u00e4ttnauerstrasse", "amenity": "restaurant", "delivery": "no", "email": "info@mirvowinti.ch", "level": "0", "name": "Ziegelh\u00fctte", "opening_hours": "Fr,Sa 18:00+ open \"bei Anlass\"", "outdoor_seating": "yes", "smoking": "outside", "website": "https://mirvowinti.ch", "wheelchair": "limited"}}, {"type": "node", "id": 4879747524, "lat": 47.5018878, "lon": 8.7734895, "tags": {"addr:city": "Winterthur", "addr:housenumber": "14", "addr:postcode": "8409", "addr:street": "Stegackerstrasse", "amenity": "restaurant", "cuisine": "pizza;italian", "name": "Santa Rosa"}}, {"type": "node", "id": 4952008723, "lat": 47.5054212, "lon": 8.7146463, "tags": {"addr:city": "Winterthur", "addr:housenumber": "31", "addr:postcode": "8400", "addr:street": "B\u00fcrglistrasse", "amenity": "restaurant", "cuisine": "indian", "delivery": "yes", "name": "Saffron", "opening_hours": "Mo-Fr 11:30-14:00, 17:30-23:00; Sa 17:30-23:00; Su 17:30-22:30", "outdoor_seating": "yes", "phone": "+41522247175", "takeaway": "yes", "website": "https://saffronrestaurant.ch/"}}, {"type": "node", "id": 5109346567, "lat": 47.4905043, "lon": 8.7047391, "tags": {"addr:city": "Winterthur", "addr:housenumber": "162", "addr:postcode": "8406", "addr:street": "Z\u00fcrcherstrasse", "amenity": "restaurant", "cuisine": "balkan", "delivery": "yes", "name": "\u00c7akllani", "opening_hours": "Mo-Th 08:00-22:00; Fr-Sa 08:00-24:00, Su 08:00-22:00", "outdoor_seating": "no", "website": "https://www.restaurant-cakllani.ch/"}}, {"type": "node", "id": 5109346573, "lat": 47.4924275, "lon": 8.7069041, "tags": {"amenity": "restaurant", "name": "Lani"}}, {"type": "node", "id": 5205863978, "lat": 47.4912931, "lon": 8.7340645, "tags": {"amenity": "restaurant", "cuisine": "italian;pizza", "name": "Incontro", "takeaway": "yes", "website": "http://www.incontropizza.ch/"}}, {"type": "node", "id": 5219634725, "lat": 47.4984412, "lon": 8.72724, "tags": {"amenity": "restaurant", "check_date": "2023-07-07", "check_date:opening_hours": "2023-07-24", "cuisine": "italian;noodle;pizza", "level": "0", "name": "Terracina", "opening_hours:signed": "no", "outdoor_seating": "yes", "takeaway": "yes", "toilets": "yes", "wheelchair": "limited"}}, {"type": "node", "id": 5250896232, "lat": 47.4927256, "lon": 8.7121796, "tags": {"amenity": "restaurant", "name": "Gr\u00fctli"}}, {"type": "node", "id": 5313864428, "lat": 47.498444, "lon": 8.7277842, "tags": {"addr:city": "Winterthur", "addr:housenumber": "3", "addr:postcode": "8400", "addr:street": "Metzggasse", "amenity": "restaurant", "email": "info@sabisbistro.ch", "name": "Sabi's Genuss Bistro", "opening_hours": "Tu 08:00-23:00; We-Th 09:00-23:00; Fr 08:00-24:00; Sa 09:00-24:00", "phone": "+41 79 527 88 66", "website": "https://www.sabisbistro.ch/"}}, {"type": "node", "id": 5320192449, "lat": 47.4624948, "lon": 8.7146159, "tags": {"addr:city": "Kemptthal", "addr:housenumber": "41", "addr:postcode": "8310", "addr:street": "Rossbergstrasse", "amenity": "restaurant", "cuisine": "regional", "name": "Restaurant Rossberg", "outdoor_seating": "no", "website": "https://rossberg-winterthur.ch/"}}, {"type": "node", "id": 5575895524, "lat": 47.4886565, "lon": 8.8038259, "tags": {"addr:city": "R\u00e4terschen", "addr:housenumber": "34", "addr:postcode": "8352", "addr:street": "R\u00e4terschenstrasse", "amenity": "restaurant", "name": "Wirtschaft zum Landhaus", "opening_hours": "We-Sa 11:00-22:00, Su-Tu off", "outdoor_seating": "yes", "website": "https://www.gastro-tipp.ch/tipps_profile_detail.php?profileIDX=2558"}}, {"type": "node", "id": 5715924417, "lat": 47.5089085, "lon": 8.6921959, "tags": {"addr:city": "Winterthur", "addr:housenumber": "44", "addr:postcode": "8408", "addr:street": "Wieshofstrasse", "amenity": "restaurant", "cuisine": "pizza;italian", "name": "Monte Civetta", "toilets:wheelchair": "no", "wheelchair": "no"}}, {"type": "node", "id": 5770385052, "lat": 47.4963916, "lon": 8.7458858, "tags": {"amenity": "restaurant", "cuisine": "pizza", "delivery": "yes", "name": "Sherazad", "takeaway": "yes"}}, {"type": "node", "id": 6063274103, "lat": 47.49523, "lon": 8.7503609, "tags": {"amenity": "restaurant", "name": "House of Grill", "opening_hours": "Tu-Su 11:00-23:00"}}, {"type": "node", "id": 6082078700, "lat": 47.5007586, "lon": 8.7201508, "tags": {"addr:postcode": "8400", "amenity": "restaurant", "cuisine": "indian", "name": "Tandoor Restaurant + Takeaway", "name:de": "Tandoor - Indischer Supermarkt und Take Away", "opening_hours": "Mo-Sa 10:00-20:00", "website": "http://www.indian-supermarket.ch/indian/supermarket"}}, {"type": "node", "id": 6269893385, "lat": 47.5135566, "lon": 8.7153827, "tags": {"addr:postcode": "8400", "amenity": "restaurant", "name": "Restaurant Schwimmbad Wolfensberg", "operator": "Schwimmbad Wolfensberg"}}, {"type": "node", "id": 7091616935, "lat": 47.5026752, "lon": 8.7199275, "tags": {"addr:city": "Winterthur", "addr:housenumber": "15", "addr:postcode": "8400", "addr:street": "Tellstrasse", "amenity": "restaurant", "capacity": "60", "cuisine": "swiss;fondue;raclette", "delivery": "no", "level": "-1", "name": "Fondue Keller", "opening_hours": "Tu-Su 17:00-23:00", "outdoor_seating": "no", "phone": "+41 52 224 75 29", "smoking": "no", "website": "https://www.fonduekeller-winterthur.com/", "wheelchair": "limited"}}, {"type": "node", "id": 7231454924, "lat": 47.4995172, "lon": 8.7197056, "tags": {"addr:city": "Winterthur", "addr:housenumber": "10", "addr:postcode": "8400", "addr:street": "Sch\u00fctzenstrasse", "amenity": "restaurant", "diet:vegan": "yes", "diet:vegetarian": "yes", "name": "Wintimomo", "opening_hours": "Mo-Fr 11:00-14:00"}}, {"type": "node", "id": 7312246385, "lat": 47.5090675, "lon": 8.7172061, "tags": {"addr:postcode": "8400", "amenity": "restaurant", "cuisine": "italian", "name": "Ristorante ConCordia", "opening_hours": "Mo-Sa 11:00-14:00, 17:30-23:00", "phone": "+41 52 517 12 34", "website": "https://con-cordia.ch/"}}, {"type": "node", "id": 7439496294, "lat": 47.5105886, "lon": 8.6951108, "tags": {"amenity": "restaurant", "cuisine": "kebab", "name": "Kebab Treff", "takeaway": "yes"}}, {"type": "node", "id": 7503079102, "lat": 47.4984124, "lon": 8.7240672, "tags": {"addr:city": "Winterthur", "addr:housenumber": "2", "addr:postcode": "8400", "addr:street": "Archplatz", "amenity": "restaurant", "branch": "Winterthur", "check_date": "2023-06-28", "level": "1", "name": "Asiaway Restaurant", "opening_hours": "Mo-Sa 11:30-14:00,17:30-22:00", "operator": "Asiaway", "website": "https://asiaway.ch/"}}, {"type": "node", "id": 7632693412, "lat": 47.4894776, "lon": 8.7031772, "tags": {"addr:city": "Winterthur", "addr:housenumber": "200", "addr:postcode": "8406", "addr:street": "Z\u00fcrcherstrasse", "amenity": "restaurant", "capacity": "100", "check_date": "2024-01-20", "name": "My Home", "opening_hours": "Mo-Su 06:30-21:00", "outdoor_seating": "yes"}}, {"type": "node", "id": 7685026291, "lat": 47.498982, "lon": 8.7202505, "tags": {"alt_name": "Migros Restaurant Neuwiesen", "amenity": "restaurant", "branch": "Winterthur Neuwiesen", "level": "2", "name": "Migros Restaurant", "opening_hours": "Mo-Fr 08:00-20:00; Sa 08:00-18:00", "operator": "Genossenschaft Migros Ostschweiz", "self_service": "yes", "website": "https://filialen.migros.ch/de/migros-restaurant-winterthur-neuwiesen"}}, {"type": "node", "id": 7815260385, "lat": 47.5007543, "lon": 8.726594, "tags": {"addr:city": "Winterthur", "addr:housenumber": "10B", "addr:postcode": "8400", "addr:street": "Stadthausstrasse", "amenity": "restaurant", "bar": "yes", "check_date": "2023-06-29", "cuisine": "barbecue", "name": "Cross", "outdoor_seating": "yes", "phone": "+41 52 203 11 11", "takeaway": "yes", "website": "https://www.crossbbq.ch/"}}, {"type": "node", "id": 7826688994, "lat": 47.4937731, "lon": 8.7106155, "tags": {"addr:city": "Winterthur", "addr:housenumber": "79", "addr:postcode": "8406", "addr:street": "Untere Briggerstrasse", "amenity": "restaurant", "check_date": "2024-01-19", "cuisine": "pizza", "delivery": "yes", "name": "Industriehalle", "opening_hours": "Tu-Su 12:00-04:00", "website": "https://industriehalle-kurier.ch/"}}, {"type": "node", "id": 7845978708, "lat": 47.4940136, "lon": 8.7110655, "tags": {"addr:housenumber": "65", "addr:street": "Z\u00fcrcherstrasse", "amenity": "restaurant", "check_date": "2024-01-19", "cuisine": "burger", "name": "Big Burger", "website": "https://bigburger.ch/"}}, {"type": "node", "id": 7845978713, "lat": 47.4970473, "lon": 8.7010077, "tags": {"addr:city": "Winterthur", "addr:housenumber": "68", "addr:postcode": "8406", "addr:street": "Schlosstalstrasse", "amenity": "restaurant", "cuisine": "indian;pizza", "delivery": "yes", "name": "Indian King with Pizza", "opening_hours": "Mo-Fr 11:30-14:00,17:30-22:00; Sa,Su 17:00-22:00"}}, {"type": "node", "id": 7858249070, "lat": 47.4992908, "lon": 8.7266065, "tags": {"addr:city": "Winterthur", "addr:housenumber": "61", "addr:postcode": "8400", "addr:street": "Marktgasse", "amenity": "restaurant", "check_date": "2023-06-29", "cuisine": "brasserie;french", "name": "Brasserie Reh", "opening_hours": "Mo-Th 08:00-22:00; Fr, Sa 08:00-23:00; Su 09:30-19:00"}}, {"type": "node", "id": 7969145588, "lat": 47.5054454, "lon": 8.7174598, "tags": {"addr:city": "Winterthur", "addr:housenumber": "36", "addr:postcode": "8400", "addr:street": "W\u00fclflingerstrasse", "amenity": "restaurant", "check_date": "2023-07-07", "name": "Wildrose Bistro", "opening_hours": "We-Fr 17:00+", "website": "https://wildrose-bistro.ch/"}}, {"type": "node", "id": 7992692128, "lat": 47.5035992, "lon": 8.7276785, "tags": {"amenity": "restaurant", "diet:vegan": "yes", "diet:vegetarian": "yes", "internet_access": "wlan", "internet_access:fee": "no", "level": "1", "name": "Gr\u00fcner Saal", "opening_hours": "Mo-Fr 11:00-14:00; PH off", "opening_hours:kitchen": "Mo-Fr 11:30-13:00; PH off", "operator": "SV (Schweiz) AG", "smoking": "no", "takeaway": "yes", "website": "https://gruener-saal.sv-restaurant.ch/", "wheelchair": "yes"}}, {"type": "node", "id": 8128785390, "lat": 47.4980566, "lon": 8.7304657, "tags": {"addr:city": "Winterthur", "addr:housenumber": "12", "addr:postcode": "8400", "addr:street": "Technikumstrasse", "amenity": "restaurant", "check_date": "2023-07-01", "cuisine": "burger;steak_house", "name": "Jimmy's", "opening_hours": "Tu-Th 11:00-22:30; Fr-Sa 11:00-24:00; Su 11:00-22:30"}}, {"type": "node", "id": 8199027204, "lat": 47.5181922, "lon": 8.7200889, "tags": {"addr:city": "Winterthur", "addr:housenumber": "152", "addr:postcode": "8400", "addr:street": "Schaffhauserstrasse", "amenity": "restaurant", "brand": "Hans im Gl\u00fcck", "brand:wikidata": "Q22569868", "brand:wikipedia": "de:Hans im Gl\u00fcck (Restaurantkette)", "cuisine": "burger", "delivery": "yes", "diet:vegan": "yes", "diet:vegetarian": "yes", "level": "0", "name": "Hans im Gl\u00fcck", "opening_hours": "Mo-Su 11:00-23:00", "outdoor_seating": "yes", "phone": "+41525112980", "takeaway": "yes", "website": "https://hansimglueck-burgergrill.de/standort/winterthur-rosenberg"}}, {"type": "node", "id": 8519878955, "lat": 47.5077003, "lon": 8.7554769, "tags": {"amenity": "restaurant", "check_date:opening_hours": "2022-06-18", "cuisine": "pizza", "diet:vegetarian": "no", "name": "Oberi Pizza", "opening_hours": "Mo 17:00-22:00; Tu-Th 11:00-13:30,17:00-22:00; Fr 11:00-13:30,17:00-23:00; Sa 17:00-23:00; PH,Su 15:00-22:00", "wheelchair": "limited"}}, {"type": "node", "id": 8874899713, "lat": 47.5012179, "lon": 8.7209909, "tags": {"amenity": "restaurant", "cuisine": "burger", "name": "Tayyeb Burger", "opening_hours": "Tu-Th 11:00-14:00,17:00-21:00; Fr 15:00-21:00; Sa,Su 12:00-21:00", "takeaway": "yes", "website": "https://www.tayyebburger.ch/"}}, {"type": "node", "id": 9097117333, "lat": 47.4983164, "lon": 8.7546036, "tags": {"addr:city": "Winterthur", "addr:housenumber": "170", "addr:postcode": "8404", "addr:street": "St. Gallerstrasse", "amenity": "restaurant", "name": "Erpot", "website": "https://erpot.ch/"}}, {"type": "node", "id": 9454867847, "lat": 47.5015424, "lon": 8.7206897, "tags": {"amenity": "restaurant", "contact:email": "hello@7030.ch", "level": "0", "name": "70/30", "opening_hours": "Mo-Th 11:00-22:00; Fr 11:00-23:00; Sa 11:00-23:00; Su 11:00-18:00", "operator": "70/30 Gastro AG", "outdoor_seating": "yes", "phone": "+41 52 233 70 30", "self_service": "yes", "toilets": "yes", "toilets:access": "customers", "website": "https://7030.ch/"}}, {"type": "node", "id": 9581108183, "lat": 47.4990053, "lon": 8.7302299, "tags": {"addr:city": "Winterthur", "addr:housenumber": "15", "addr:postcode": "8400", "addr:street": "Obergasse", "amenity": "restaurant", "cuisine": "chinese", "name": "China Bowl", "opening_hours": "Mo-Sa 11:00-22:30; Su 17:00-22:30", "phone": "+41522129888", "website": "https://www.chinabowl-restaurant.ch/"}}, {"type": "node", "id": 9708663946, "lat": 47.4957497, "lon": 8.7649323, "tags": {"addr:city": "Winterthur", "addr:housenumber": "10", "addr:postcode": "8404", "addr:street": "Fr\u00f6schenweidstrasse", "amenity": "restaurant", "cuisine": "vietnamese", "name": "Viet Long", "opening_hours": "Mo-Fr 11:00-13:30", "website": "https://www.vietlong.ch/"}}, {"type": "node", "id": 9813646886, "lat": 47.5036312, "lon": 8.7619351, "tags": {"addr:city": "Winterthur", "addr:country": "CH", "addr:housename": "TownVillage", "addr:housenumber": "18", "addr:postcode": "8404", "addr:street": "Barbara-Reinhart-Strasse", "amenity": "restaurant", "cuisine": "coffee_shop", "name": "Kafi Theodor", "website": "https://kafitheodor.ch/", "wheelchair": "yes"}}, {"type": "node", "id": 9860737813, "lat": 47.5107247, "lon": 8.7230168, "tags": {"addr:city": "Winterthur", "addr:housenumber": "65", "addr:postcode": "8400", "addr:street": "Rosentalstrasse", "amenity": "restaurant", "name": "oh' bois", "opening_hours": "Mo-Fr 09:00-16:30; Sa-Su 11:00-16:30; PH 11:00-16:30", "phone": "+41 52 267 37 14", "website": "https://stadt.winterthur.ch/themen/leben-in-winterthur/alter-gesundheit-und-soziales/wohnen-im-alter/alterszentren/alterszentrum_rosental/restaurant-oh-bois-im-alterszentrum-rosental"}}, {"type": "node", "id": 9880301426, "lat": 47.4992923, "lon": 8.7234586, "tags": {"addr:city": "Winterthur", "addr:housenumber": "3", "addr:postcode": "8400", "addr:street": "Bahnhofplatz", "alt_name": "Glashaus", "amenity": "restaurant", "name": "Coop Restaurant Winterthur City", "operator": "Coop Genossenschaft", "website": "https://www.coop.ch/de/unternehmen/standorte-und-oeffnungszeiten/detail.html/4948/"}}, {"type": "node", "id": 10614201722, "lat": 47.4999092, "lon": 8.7317937, "tags": {"addr:housenumber": "27", "addr:street": "Obertor", "amenity": "restaurant", "check_date": "2023-02-11", "cuisine": "turkish", "name": "Sumak Sumak", "opening_hours": "Mo 11:00-21:30; Tu-Th 11:00-22:00; Fr-Sa 11:00-22:30; Su off", "payment:cards": "no", "payment:credit_cards": "no", "payment:debit_cards": "no", "takeaway": "yes"}}, {"type": "node", "id": 10649464134, "lat": 47.4999829, "lon": 8.7328524, "tags": {"amenity": "restaurant", "check_date": "2023-02-11", "name": "Cha Yen Bubble Tea", "opening_hours": "Mo,Su off; Tu-Sa 11:30-18:30", "payment:mastercard": "yes", "payment:visa": "yes"}}, {"type": "node", "id": 10649506774, "lat": 47.4982238, "lon": 8.7325352, "tags": {"addr:housenumber": "1", "addr:street": "General-Guisan-Strasse", "amenity": "restaurant", "check_date": "2023-02-11", "name": "Thai Take Away", "opening_hours": "Mo-Th 10:00-22:00; Fr-Sa 10:00-21:00; Su off", "payment:mastercard": "yes", "payment:visa": "yes"}}, {"type": "node", "id": 11233255992, "lat": 47.5064541, "lon": 8.684185, "tags": {"addr:city": "Winterthur", "addr:housenumber": "102", "addr:postcode": "8408", "addr:street": "Wieshofstrasse", "amenity": "restaurant", "name": "Schlosstal", "opening_hours": "Mo-Fr 07:00-17:00; Sa,Su,PH 13:00-17:00", "website": "https://ipw.ch/ueber-uns/gastronomie-1"}}, {"type": "node", "id": 11554643226, "lat": 47.4988827, "lon": 8.7211451, "tags": {"amenity": "restaurant", "cuisine": "burger;pizza;pasta", "indoor_seating": "yes", "level": "0", "name": "Gocha", "outdoor_seating": "yes", "takeaway": "yes", "toilets": "yes", "toilets:wheelchair": "designated", "wheelchair": "yes"}}, {"type": "node", "id": 11563934256, "lat": 47.5011917, "lon": 8.7273023, "tags": {"addr:city": "Winterthur", "addr:postcode": "8400", "addr:street": "Im Stadtpark", "amenity": "restaurant", "contact:email": "info@wintialp.ch", "contact:phone": "+41 52 511 40 41", "contact:website": "https://www.wintialp.ch/", "name": "Wintialp", "opening_hours": "Nov-Feb"}}, {"type": "node", "id": 11670287541, "lat": 47.4624689, "lon": 8.7135664, "tags": {"amenity": "restaurant", "name": "Clubrestaurant La Gloria", "opening_hours": "07:00-00:00", "operator": "Golf Kyburg"}}]